IRIDIUM 144             
1 43249U 18030A   25200.36499284  .00000145  00000+0  44725-4 0  9993
2 43249  86.3930  69.5470 0002003  86.0856 274.0569 14.34216902382459
IRIDIUM 149             
1 43250U 18030B   25200.37133555 -.00000003  00000+0 -80233-5 0  9992
2 43250  86.3929  69.5149 0001934  87.7629 272.3788 14.34217357382459
IRIDIUM 157             
1 43251U 18030C   25200.39036405 -.00000004  00000+0 -83465-5 0  9992
2 43251  86.3931  69.5529 0002255  88.0750 272.0704 14.34217412382436
IRIDIUM 140             
1 43252U 18030D   25200.33962251 -.00000015  00000+0 -12547-4 0  9998
2 43252  86.3930  69.5876 0001874  83.3740 276.7669 14.34217370382483
IRIDIUM 145             
1 43253U 18030E   25200.18739943  .00000070  00000+0  17771-4 0  9995
2 43253  86.3935  69.6243 0001768  91.1243 269.0156 14.34217581382395
IRIDIUM 146             
1 43254U 18030F   25200.37767716  .00000025  00000+0  17705-5 0  9994
2 43254  86.3930  69.5579 0001683  90.1701 269.9687 14.34217705382437
IRIDIUM 148             
1 43255U 18030G   25200.06689452  .00000176  00000+0  55781-4 0  9993
2 43255  86.3940  69.7256 0002191  91.6799 268.4648 14.34218980382438
IRIDIUM 142             
1 43256U 18030H   25200.38401993 -.00000003  00000+0 -80370-5 0  9995
2 43256  86.3928  69.4943 0001631  95.4348 264.7034 14.34217398382435
